NORAD_CAT_ID,OBJECT_NAME,OBJECT_TYPE,EPOCH,MEAN_MOTION,ECCENTRICITY,INCLINATION,RA_OF_ASC_NODE,ARG_OF_PERICENTER,MEAN_ANOMALY,BSTAR,MEAN_MOTION_DOT,MEAN_MOTION_DDOT,TLE_LINE0,TLE_LINE1,TLE_LINE2,SEMIMAJOR_AXIS,PERIOD,APOGEE,PERIGEE,DECAYED
56481.0,STARLINK-6222,PAYLOAD,2024-01-22 22:46:59,14.98328361,0.000268,70.0001,282.7938,251.5137,108.5731,3.3393e-05,3.05e-06,0.0,0 STARLINK-6222,1 56481U 23064AK  24022.94929998  .00000305  00000-0  33393-4 0  9991,2 56481  70.0001 282.7938 0002680 251.5137 108.5731 14.98328361 39397,6950.198,96.107,573.926,570.2,0.0
56481.0,STARLINK-6222,PAYLOAD,2024-01-23 03:35:23,14.98330999,0.0002628,70.0002,282.2894,253.8755,106.2114,5.8162e-05,6.01e-06,0.0,0 STARLINK-6222,1 56481U 23064AK  24023.14957776  .00000601  00000-0  58162-4 0  9999,2 56481  70.0002 282.2894 0002628 253.8755 106.2114 14.98330999 39780,6950.19,96.107,573.881,570.228,0.0
56481.0,STARLINK-6222,PAYLOAD,2024-01-23 22:49:00,14.98332515,0.0002568,70.0005,280.2692,247.8276,112.2611,2.9066e-05,2.54e-06,0.0,0 STARLINK-6222,1 56481U 23064AK  24023.95069549  .00000254  00000-0  29066-4 0  9995,2 56481  70.0005 280.2692 0002568 247.8276 112.2611 14.98332515 39540,6950.185,96.107,573.835,570.265,0.0
56481.0,STARLINK-6222,PAYLOAD,2024-01-24 02:01:16,14.98333485,0.0002592,70.0004,279.9326,252.3255,107.7621,3.0288e-05,2.68e-06,0.0,0 STARLINK-6222,1 56481U 23064AK  24024.08421463  .00000268  00000-0  30288-4 0  9990,2 56481  70.0004 279.9326 0002592 252.3255 107.7621 14.98333485 39922,6950.182,96.107,573.849,570.246,0.0
56481.0,STARLINK-6222,PAYLOAD,2024-01-24 19:38:45,14.98327918,0.0002573,70.0004,278.0808,253.0693,107.0185,-2.9958e-05,-4.5e-06,0.0,0 STARLINK-6222,1 56481U 23064AK  24024.81857923 -.00000450  00000-0 -29958-4 0  9992,2 56481  70.0004 278.0808 0002573 253.0693 107.0185 14.98327918 40036,6950.199,96.107,573.853,570.276,0.0
56481.0,STARLINK-6222,PAYLOAD,2024-01-24 22:51:01,14.98326616,0.0002526,70.0004,277.7443,251.6768,108.4117,-5.1307e-05,-7.05e-06,0.0,0 STARLINK-6222,1 56481U 23064AK  24024.95210075 -.00000705  00000-0 -51307-4 0  9994,2 56481  70.0004 277.7443 0002526 251.6768 108.4117 14.98326616 39696,6950.203,96.107,573.824,570.313,0.0
56481.0,STARLINK-6222,PAYLOAD,2024-01-25 02:03:17,14.98325201,0.0002535,70.0003,277.4076,253.759,106.329,-6.7677e-05,-9e-06,0.0,0 STARLINK-6222,1 56481U 23064AK  24025.08562248 -.00000900  00000-0 -67677-4 0  9995,2 56481  70.0003 277.4076 0002535 253.7590 106.3290 14.98325201 40072,6950.208,96.107,573.835,570.311,0.0
56481.0,STARLINK-6222,PAYLOAD,2024-01-25 19:40:46,14.98326935,0.0002539,70.0001,275.5554,254.6324,105.4554,-5.9419e-05,-8.02e-06,0.0,0 STARLINK-6222,1 56481U 23064AK  24025.81998256 -.00000802  00000-0 -59419-4 0  9994,2 56481  70.0001 275.5554 0002539 254.6324 105.4554 14.98326935 40189,6950.202,96.107,573.832,570.303,0.0
56481.0,STARLINK-6222,PAYLOAD,2024-01-25 22:53:02,14.98326796,0.0002538,70.0001,275.2187,254.6108,105.4771,-5.6939e-05,-7.72e-06,0.0,0 STARLINK-6222,1 56481U 23064AK  24025.95350284 -.00000772  00000-0 -56939-4 0  9992,2 56481  70.0001 275.2187 0002538 254.6108 105.4771 14.98326796 39844,6950.203,96.107,573.832,570.304,0.0
56481.0,STARLINK-6222,PAYLOAD,2024-01-26 02:05:18,14.98326795,0.0002539,70.0001,274.882,255.6617,104.426,-5.4446e-05,-7.42e-06,0.0,0 STARLINK-6222,1 56481U 23064AK  24026.08702309 -.00000742  00000-0 -54446-4 0  9994,2 56481  70.0001 274.8820 0002539 255.6617 104.4260 14.98326795 40225,6950.203,96.107,573.832,570.303,0.0
56481.0,STARLINK-6222,PAYLOAD,2024-01-26 19:42:46,14.98332641,0.0002735,69.9994,273.0287,263.8083,96.2764,0.00010554,1.167e-05,0.0,0 STARLINK-6222,1 56481U 23064AK  24026.82137481  .00001167  00000-0  10554-3 0  9990,2 56481  69.9994 273.0287 0002735 263.8083  96.2764 14.98332641 40333,6950.185,96.107,573.951,570.149,0.0
56481.0,STARLINK-6222,PAYLOAD,2024-01-27 02:07:18,14.98335163,0.0002693,69.9993,272.3553,261.6315,98.4539,0.00012789,1.433e-05,0.0,0 STARLINK-6222,1 56481U 23064AK  24027.08841189  .00001433  00000-0  12789-3 0  9994,2 56481  69.9993 272.3553 0002693 261.6315  98.4539 14.98335163 40377,6950.177,96.107,573.914,570.17,0.0
56481.0,STARLINK-6222,PAYLOAD,2024-01-27 19:44:48,14.98327516,0.0002637,69.9993,270.5044,255.9295,104.1571,3.6147e-06,-5e-07,0.0,0 STARLINK-6222,1 56481U 23064AK  24027.82277944 -.00000050  00000-0  36147-5 0  9999,2 56481  69.9993 270.5044 0002637 255.9295 104.1571 14.98327516 40489,6950.201,96.107,573.898,570.233,0.0
56481.0,STARLINK-6222,PAYLOAD,2024-01-27 21:20:56,14.98327598,0.0002633,69.9993,270.3361,255.7994,104.2872,4.3273e-06,-4.1e-07,0.0,0 STARLINK-6222,1 56481U 23064AK  24027.88953938 -.00000041  00000-0  43273-5 0  9997,2 56481  69.9993 270.3361 0002633 255.7994 104.2872 14.98327598 40136,6950.2,96.107,573.895,570.235,0.0
56481.0,STARLINK-6222,PAYLOAD,2024-01-28 02:09:20,14.98326156,0.0002685,69.9992,269.8314,259.6894,100.3963,-1.7727e-05,-3.04e-06,0.0,0 STARLINK-6222,1 56481U 23064AK  24028.08982134 -.00000304  00000-0 -17727-4 0  9997,2 56481  69.9992 269.8314 0002685 259.6894 100.3963 14.98326156 40525,6950.205,96.107,573.936,570.204,0.0
56481.0,STARLINK-6222,PAYLOAD,2024-01-28 14:58:24,14.98334377,0.0002726,69.9988,268.4844,262.8207,97.2642,-8.2601e-05,-1.079e-05,0.0,0 STARLINK-6222,1 56481U 23064AK  24028.62389820 -.00001079  00000-0 -82601-4 0  9993,2 56481  69.9988 268.4844 0002726 262.8207  97.2642 14.98334377 40244,6950.179,96.107,573.939,570.15,0.0
56481.0,STARLINK-6222,PAYLOAD,2024-01-28 19:46:48,14.98334455,0.0002726,69.9989,267.9794,262.2203,97.8646,-7.561e-05,-9.95e-06,0.0,0 STARLINK-6222,1 56481U 23064AK  24028.82417726 -.00000995  00000-0 -75610-4 0  9990,2 56481  69.9989 267.9794 0002726 262.2203  97.8646 14.98334455 40633,6950.179,96.107,573.939,570.149,0.0
56481.0,STARLINK-6222,PAYLOAD,2024-01-28 21:22:56,14.98333948,0.0002732,69.9988,267.811,261.9009,98.184,-7.9608e-05,-1.043e-05,0.0,0 STARLINK-6222,1 56481U 23064AK  24028.89093749 -.00001043  00000-0 -79608-4 0  9998,2 56481  69.9988 267.8110 0002732 261.9009  98.1840 14.98333948 40287,6950.181,96.107,573.944,570.147,0.0
56481.0,STARLINK-6222,PAYLOAD,2024-01-29 02:11:20,14.9833567,0.0002699,69.9988,267.3059,262.1212,97.964,-5.253e-05,-7.2e-06,0.0,0 STARLINK-6222,1 56481U 23064AK  24029.09121499 -.00000720  00000-0 -52530-4 0  9991,2 56481  69.9988 267.3059 0002699 262.1212  97.9640 14.98335670 40677,6950.175,96.107,573.916,570.165,0.0
56481.0,STARLINK-6222,PAYLOAD,2024-01-30 00:37:13,14.98329598,0.0002703,69.9986,264.9495,267.1073,92.9777,4.8592e-05,4.87e-06,0.0,0 STARLINK-6222,1 56481U 23064AK  24030.02585472  .00000487  00000-0  48592-4 0  9992,2 56481  69.9986 264.9495 0002703 267.1073  92.9777 14.98329598 40812,6950.194,96.107,573.938,570.18,0.0
56481.0,STARLINK-6222,PAYLOAD,2024-01-30 19:50:50,14.98331034,0.0002762,69.9983,262.9286,263.007,97.0775,-1.3813e-05,-2.58e-06,0.0,0 STARLINK-6222,1 56481U 23064AK  24030.82697461 -.00000258  00000-0 -13813-4 0  9998,2 56481  69.9983 262.9286 0002762 263.0070  97.0775 14.98331034 40937,6950.19,96.107,573.974,570.135,0.0
56481.0,STARLINK-6222,PAYLOAD,2024-01-30 23:03:06,14.98330837,0.000278,69.9981,262.5916,260.3993,99.6852,-1.6861e-05,-2.94e-06,0.0,0 STARLINK-6222,1 56481U 23064AK  24030.96049448 -.00000294  00000-0 -16861-4 0  9995,2 56481  69.9981 262.5916 0002780 260.3993  99.6852 14.98330837 40591,6950.19,96.107,573.987,570.123,0.0
56481.0,STARLINK-6222,PAYLOAD,2024-01-31 00:39:14,14.9833117,0.0002781,69.998,262.4232,260.5044,99.5801,-1.32e-05,-2.5e-06,0.0,0 STARLINK-6222,1 56481U 23064AK  24031.02725409 -.00000250  00000-0 -13200-4 0  9997,2 56481  69.9980 262.4232 0002781 260.5044  99.5801 14.98331170 40965,6950.189,96.107,573.987,570.121,0.0
56481.0,STARLINK-6222,PAYLOAD,2024-01-31 15:04:27,14.98328346,0.0002747,69.9979,260.9073,259.9787,100.1062,-1.6657e-05,-2.92e-06,0.0,0 STARLINK-6222,1 56481U 23064AK  24031.62809526 -.00000292  00000-0 -16657-4 0  9991,2 56481  69.9979 260.9073 0002747 259.9787 100.1062 14.98328346 40696,6950.198,96.107,573.972,570.154,0.0
56481.0,STARLINK-6222,PAYLOAD,2024-02-01 00:41:15,14.9832855,0.0002813,69.9979,259.8976,266.1028,93.981,-9.5628e-06,-2.07e-06,0.0,0 STARLINK-6222,1 56481U 23064AK  24032.02865546 -.00000207  00000-0 -95628-5 0  9992,2 56481  69.9979 259.8976 0002813 266.1028  93.9810 14.98328550 41112,6950.197,96.107,574.017,570.107,0.0
56481.0,STARLINK-6222,PAYLOAD,2024-02-02 00:43:16,14.98329443,0.0002819,69.9977,257.3726,266.3852,93.6985,4.1038e-06,-4.4e-07,0.0,0 STARLINK-6222,1 56481U 23064AK  24033.03005468 -.00000044  00000-0  41038-5 0  9997,2 56481  69.9977 257.3726 0002819 266.3852  93.6985 14.98329443 41267,6950.195,96.107,574.019,570.1,0.0
56481.0,STARLINK-6222,PAYLOAD,2024-02-02 18:20:45,14.98329885,0.0002935,69.9982,255.5224,271.3243,88.7579,1.2952e-05,6.2e-07,0.0,0 STARLINK-6222,1 56481U 23064AK  24033.76441441  .00000062  00000-0  12952-4 0  9993,2 56481  69.9982 255.5224 0002935 271.3243  88.7579 14.98329885 41371,6950.193,96.107,574.098,570.018,0.0
56481.0,STARLINK-6222,PAYLOAD,2024-02-02 21:33:01,14.98330438,0.0002849,69.9981,255.1855,272.3926,87.6907,2.8095e-05,2.42e-06,0.0,0 STARLINK-6222,1 56481U 23064AK  24033.89793377  .00000242  00000-0  28095-4 0  9990,2 56481  69.9981 255.1855 0002849 272.3926  87.6907 14.98330438 41031,6950.192,96.107,574.037,570.076,0.0
56481.0,STARLINK-6222,PAYLOAD,2024-02-03 00:45:17,14.98330513,0.000284,69.9981,254.8488,272.4815,87.6019,2.85e-05,2.47e-06,0.0,0 STARLINK-6222,1 56481U 23064AK  24034.03145365  .00000247  00000-0  28500-4 0  9991,2 56481  69.9981 254.8488 0002840 272.4815  87.6019 14.98330513 41418,6950.191,96.107,574.03,570.082,0.0
56481.0,STARLINK-6222,PAYLOAD,2024-02-03 19:58:55,14.98321557,0.000242,69.9992,252.8299,270.1921,89.896,-0.00012699,-1.607e-05,0.0,0 STARLINK-6222,1 56481U 23064AK  24034.83258804 -.00001607  00000-0 -12699-3 0  9996,2 56481  69.9992 252.8299 0002420 270.1921  89.8960 14.98321557 41535,6950.219,96.108,573.766,570.402,0.0
